STARLINK-35972          
1 66638U 25271X   25360.63391491  .00054210  00000+0  13556-2 0  9991
2 66638  53.1593 121.2492 0001104  85.6164 274.4967 15.39620683  6350
STARLINK-35908          
1 66639U 25271Y   25360.75910083  .00050274  00000+0  12582-2 0  9993
2 66639  53.1602 120.6080 0001075  79.5752 280.5374 15.39628094  6376
STARLINK-35921          
1 66640U 25271Z   25360.63855922  .00054404  00000+0  13606-2 0  9999
2 66640  53.1606 121.2774 0001155  79.5754 280.5381 15.39614415  6358
STARLINK-35923          
1 66641U 25271AA  25361.25002315  .00084431  00000+0  21014-2 0  9994
2 66641  53.1603 118.0401 0000999  84.5508 245.0396 15.39562431  6032
STARLINK-35926          
1 66642U 25271AB  25361.25002315  .00092302  00000+0  22942-2 0  9992
2 66642  53.1604 118.0883 0001109  76.2931 229.3896 15.39559525  6029
STARLINK-35918          
1 66643U 25271AC  25361.14394207  .00058190  00000+0  14514-2 0  9998
2 66643  53.1613 118.7437 0000603  66.0520 294.0548 15.39666925  6432
STARLINK-35938          
1 66644U 25271AD  25361.25002315  .00084138  00000+0  20947-2 0  9995
2 66644  53.1603 118.0926 0001189  75.3478 228.5001 15.39556263  5925
SHENZHOU-22             
1 66645U 25272A   25361.25191925  .00019920  00000+0  24489-3 0  9996
2 66645  41.4675 288.5662 0008745 157.7703 202.3516 15.59750285265983
COSMOS 2597 (RODNIK-S *)
1 66647U 25273A   25360.81295417  .00000023  00000+0  99659-4 0  9997
2 66647  82.4993 277.7108 0007599 252.7737 107.2510 12.41952314  3888
COSMOS 2598 (RODNIK-S *)
1 66648U 25273B   25361.27333428  .00000018  00000+0  56229-4 0  9994
2 66648  82.5032 277.4084 0008262 202.2573 157.8150 12.43233669  3945
COSMOS 2599 (RODNIK-S *)
1 66649U 25273C   25361.22925320  .00000036  00000+0  19337-3 0  9996
2 66649  82.5050 277.4903 0006359 239.7365 120.3085 12.41152438  3938
BEE-1000                
1 66650U 25274A   25361.30873880  .00001787  00000+0  18295-3 0  9997
2 66650  97.7406 288.2301 0011275 198.1775 161.9042 14.91711336  4571
