CCSDS_OMM_VERS = 2.0
CREATION_DATE  = 
ORIGINATOR     = 

OBJECT_NAME    = STARLINK-35972
OBJECT_ID      = 2025-271X
CENTER_NAME    = EARTH
REF_FRAME      = TEME
TIME_SYSTEM    = UTC
MEAN_ELEMENT_THEORY = SGP/SGP4

EPOCH          = 2025-12-26T15:12:50.248224
MEAN_MOTION    = 15.39620683
ECCENTRICITY   = .0001104
INCLINATION    = 53.1593
RA_OF_ASC_NODE = 121.2492
ARG_OF_PERICENTER = 85.6164
MEAN_ANOMALY   = 274.4967

EPHEMERIS_TYPE = 0
CLASSIFICATION_TYPE = U
NORAD_CAT_ID   = 66638
ELEMENT_SET_NO = 999
REV_AT_EPOCH   = 635
BSTAR          = .13556E-2
MEAN_MOTION_DOT = .5421E-3
MEAN_MOTION_DDOT = 0

CCSDS_OMM_VERS = 2.0
CREATION_DATE  = 
ORIGINATOR     = 

OBJECT_NAME    = STARLINK-35908
OBJECT_ID      = 2025-271Y
CENTER_NAME    = EARTH
REF_FRAME      = TEME
TIME_SYSTEM    = UTC
MEAN_ELEMENT_THEORY = SGP/SGP4

EPOCH          = 2025-12-26T18:13:06.311712
MEAN_MOTION    = 15.39628094
ECCENTRICITY   = .00010757
INCLINATION    = 53.1602
RA_OF_ASC_NODE = 120.6080
ARG_OF_PERICENTER = 79.5752
MEAN_ANOMALY   = 280.5374

EPHEMERIS_TYPE = 0
CLASSIFICATION_TYPE = U
NORAD_CAT_ID   = 66639
ELEMENT_SET_NO = 999
REV_AT_EPOCH   = 637
BSTAR          = .12582205E-2
MEAN_MOTION_DOT = .50274E-3
MEAN_MOTION_DDOT = 0

CCSDS_OMM_VERS = 2.0
CREATION_DATE  = 
ORIGINATOR     = 

OBJECT_NAME    = STARLINK-35921
OBJECT_ID      = 2025-271Z
CENTER_NAME    = EARTH
REF_FRAME      = TEME
TIME_SYSTEM    = UTC
MEAN_ELEMENT_THEORY = SGP/SGP4

EPOCH          = 2025-12-26T15:19:31.516608
MEAN_MOTION    = 15.39614415
ECCENTRICITY   = .0001155
INCLINATION    = 53.1606
RA_OF_ASC_NODE = 121.2774
ARG_OF_PERICENTER = 79.5754
MEAN_ANOMALY   = 280.5381

EPHEMERIS_TYPE = 0
CLASSIFICATION_TYPE = U
NORAD_CAT_ID   = 66640
ELEMENT_SET_NO = 999
REV_AT_EPOCH   = 635
BSTAR          = .13606E-2
MEAN_MOTION_DOT = .54404E-3
MEAN_MOTION_DDOT = 0

CCSDS_OMM_VERS = 2.0
CREATION_DATE  = 
ORIGINATOR     = 

OBJECT_NAME    = STARLINK-35923
OBJECT_ID      = 2025-271AA
CENTER_NAME    = EARTH
REF_FRAME      = TEME
TIME_SYSTEM    = UTC
MEAN_ELEMENT_THEORY = SGP/SGP4

EPOCH          = 2025-12-27T06:00:02.000160
MEAN_MOTION    = 15.39562431
ECCENTRICITY   = .00009999
INCLINATION    = 53.1603
RA_OF_ASC_NODE = 118.0401
ARG_OF_PERICENTER = 84.5508
MEAN_ANOMALY   = 245.0396

EPHEMERIS_TYPE = 0
CLASSIFICATION_TYPE = U
NORAD_CAT_ID   = 66641
ELEMENT_SET_NO = 999
REV_AT_EPOCH   = 603
BSTAR          = .21014164E-2
MEAN_MOTION_DOT = .84431E-3
MEAN_MOTION_DDOT = 0

CCSDS_OMM_VERS = 2.0
CREATION_DATE  = 
ORIGINATOR     = 

OBJECT_NAME    = STARLINK-35926
OBJECT_ID      = 2025-271AB
CENTER_NAME    = EARTH
REF_FRAME      = TEME
TIME_SYSTEM    = UTC
MEAN_ELEMENT_THEORY = SGP/SGP4

EPOCH          = 2025-12-27T06:00:02.000160
MEAN_MOTION    = 15.39559525
ECCENTRICITY   = .00011091
INCLINATION    = 53.1604
RA_OF_ASC_NODE = 118.0883
ARG_OF_PERICENTER = 76.2931
MEAN_ANOMALY   = 229.3896

EPHEMERIS_TYPE = 0
CLASSIFICATION_TYPE = U
NORAD_CAT_ID   = 66642
ELEMENT_SET_NO = 999
REV_AT_EPOCH   = 602
BSTAR          = .22942459E-2
MEAN_MOTION_DOT = .92302E-3
MEAN_MOTION_DDOT = 0

CCSDS_OMM_VERS = 2.0
CREATION_DATE  = 
ORIGINATOR     = 

OBJECT_NAME    = STARLINK-35918
OBJECT_ID      = 2025-271AC
CENTER_NAME    = EARTH
REF_FRAME      = TEME
TIME_SYSTEM    = UTC
MEAN_ELEMENT_THEORY = SGP/SGP4

EPOCH          = 2025-12-27T03:27:16.594848
MEAN_MOTION    = 15.39666925
ECCENTRICITY   = .00006033
INCLINATION    = 53.1613
RA_OF_ASC_NODE = 118.7437
ARG_OF_PERICENTER = 66.0520
MEAN_ANOMALY   = 294.0548

EPHEMERIS_TYPE = 0
CLASSIFICATION_TYPE = U
NORAD_CAT_ID   = 66643
ELEMENT_SET_NO = 999
REV_AT_EPOCH   = 643
BSTAR          = .14514174E-2
MEAN_MOTION_DOT = .5819E-3
MEAN_MOTION_DDOT = 0

CCSDS_OMM_VERS = 2.0
CREATION_DATE  = 
ORIGINATOR     = 

OBJECT_NAME    = STARLINK-35938
OBJECT_ID      = 2025-271AD
CENTER_NAME    = EARTH
REF_FRAME      = TEME
TIME_SYSTEM    = UTC
MEAN_ELEMENT_THEORY = SGP/SGP4

EPOCH          = 2025-12-27T06:00:02.000160
MEAN_MOTION    = 15.39556263
ECCENTRICITY   = .00011891
INCLINATION    = 53.1603
RA_OF_ASC_NODE = 118.0926
ARG_OF_PERICENTER = 75.3478
MEAN_ANOMALY   = 228.5001

EPHEMERIS_TYPE = 0
CLASSIFICATION_TYPE = U
NORAD_CAT_ID   = 66644
ELEMENT_SET_NO = 999
REV_AT_EPOCH   = 592
BSTAR          = .20946681E-2
MEAN_MOTION_DOT = .84138E-3
MEAN_MOTION_DDOT = 0

CCSDS_OMM_VERS = 2.0
CREATION_DATE  = 
ORIGINATOR     = 

OBJECT_NAME    = SHENZHOU-22
OBJECT_ID      = 2025-272A
CENTER_NAME    = EARTH
REF_FRAME      = TEME
TIME_SYSTEM    = UTC
MEAN_ELEMENT_THEORY = SGP/SGP4

EPOCH          = 2025-12-27T06:02:45.823200
MEAN_MOTION    = 15.59750285
ECCENTRICITY   = .0008745
INCLINATION    = 41.4675
RA_OF_ASC_NODE = 288.5662
ARG_OF_PERICENTER = 157.7703
MEAN_ANOMALY   = 202.3516

EPHEMERIS_TYPE = 0
CLASSIFICATION_TYPE = U
NORAD_CAT_ID   = 66645
ELEMENT_SET_NO = 999
REV_AT_EPOCH   = 26598
BSTAR          = .24488937E-3
MEAN_MOTION_DOT = .1992E-3
MEAN_MOTION_DDOT = 0

CCSDS_OMM_VERS = 2.0
CREATION_DATE  = 
ORIGINATOR     = 

OBJECT_NAME    = COSMOS 2597 (RODNIK-S 22)
OBJECT_ID      = 2025-273A
CENTER_NAME    = EARTH
REF_FRAME      = TEME
TIME_SYSTEM    = UTC
MEAN_ELEMENT_THEORY = SGP/SGP4

EPOCH          = 2025-12-26T19:30:39.240288
MEAN_MOTION    = 12.41952314
ECCENTRICITY   = .00075998
INCLINATION    = 82.4993
RA_OF_ASC_NODE = 277.7108
ARG_OF_PERICENTER = 252.7737
MEAN_ANOMALY   = 107.2510

EPHEMERIS_TYPE = 0
CLASSIFICATION_TYPE = U
NORAD_CAT_ID   = 66647
ELEMENT_SET_NO = 999
REV_AT_EPOCH   = 388
BSTAR          = .99658941E-4
MEAN_MOTION_DOT = .23E-6
MEAN_MOTION_DDOT = 0

CCSDS_OMM_VERS = 2.0
CREATION_DATE  = 
ORIGINATOR     = 

OBJECT_NAME    = COSMOS 2598 (RODNIK-S 23)
OBJECT_ID      = 2025-273B
CENTER_NAME    = EARTH
REF_FRAME      = TEME
TIME_SYSTEM    = UTC
MEAN_ELEMENT_THEORY = SGP/SGP4

EPOCH          = 2025-12-27T06:33:36.081792
MEAN_MOTION    = 12.43233669
ECCENTRICITY   = .00082625
INCLINATION    = 82.5032
RA_OF_ASC_NODE = 277.4084
ARG_OF_PERICENTER = 202.2573
MEAN_ANOMALY   = 157.8150

EPHEMERIS_TYPE = 0
CLASSIFICATION_TYPE = U
NORAD_CAT_ID   = 66648
ELEMENT_SET_NO = 999
REV_AT_EPOCH   = 394
BSTAR          = .56228556E-4
MEAN_MOTION_DOT = .18E-6
MEAN_MOTION_DDOT = 0

CCSDS_OMM_VERS = 2.0
CREATION_DATE  = 
ORIGINATOR     = 

OBJECT_NAME    = COSMOS 2599 (RODNIK-S 24)
OBJECT_ID      = 2025-273C
CENTER_NAME    = EARTH
REF_FRAME      = TEME
TIME_SYSTEM    = UTC
MEAN_ELEMENT_THEORY = SGP/SGP4

EPOCH          = 2025-12-27T05:30:07.476480
MEAN_MOTION    = 12.41152438
ECCENTRICITY   = .00063593
INCLINATION    = 82.5050
RA_OF_ASC_NODE = 277.4903
ARG_OF_PERICENTER = 239.7365
MEAN_ANOMALY   = 120.3085

EPHEMERIS_TYPE = 0
CLASSIFICATION_TYPE = U
NORAD_CAT_ID   = 66649
ELEMENT_SET_NO = 999
REV_AT_EPOCH   = 393
BSTAR          = .19337081E-3
MEAN_MOTION_DOT = .36E-6
MEAN_MOTION_DDOT = 0

CCSDS_OMM_VERS = 2.0
CREATION_DATE  = 
ORIGINATOR     = 

OBJECT_NAME    = BEE-1000
OBJECT_ID      = 2025-274A
CENTER_NAME    = EARTH
REF_FRAME      = TEME
TIME_SYSTEM    = UTC
MEAN_ELEMENT_THEORY = SGP/SGP4

EPOCH          = 2025-12-27T07:24:35.032320
MEAN_MOTION    = 14.91711336
ECCENTRICITY   = .00112758
INCLINATION    = 97.7406
RA_OF_ASC_NODE = 288.2301
ARG_OF_PERICENTER = 198.1775
MEAN_ANOMALY   = 161.9042

EPHEMERIS_TYPE = 0
CLASSIFICATION_TYPE = U
NORAD_CAT_ID   = 66650
ELEMENT_SET_NO = 999
REV_AT_EPOCH   = 457
BSTAR          = .18294867E-3
MEAN_MOTION_DOT = .1787E-4
MEAN_MOTION_DDOT = 0

